[ {"name": "STARLINK-32236", "line1": "1 60418U 24141W   26140.07168826  .00002332  00000+0  80146-4 0  9994", "line2": "2 60418  53.1567 270.7321 0001695  84.2177 275.9018 15.34396680100514"}, {"name": "STARLINK-32250", "line1": "1 60425U 24144A   26140.26300379 -.00013352  00000+0 -43873-3 0  9998", "line2": "2 60425  53.1604 244.9478 0001137  58.7464 301.3648 15.30255539 99362"}, {"name": "STARLINK-32226", "line1": "1 60426U 24144B   26140.26195132  .00000990  00000+0  45542-4 0  9996", "line2": "2 60426  53.1599 244.9400 0001139 104.1188 255.9940 15.30194443100269"}, {"name": "STARLINK-32254", "line1": "1 60427U 24144C   26140.31460198  .00001744  00000+0  70969-4 0  9999", "line2": "2 60427  53.1627 244.5595 0001407  99.7440 260.3719 15.30209315100316"}, {"name": "STARLINK-32193", "line1": "1 60428U 24144D   26140.25985605 -.00000513  00000+0 -52027-5 0  9999", "line2": "2 60428  53.1594 244.9258 0001788  88.9863 271.1343 15.30182719100301"}, {"name": "STARLINK-32242", "line1": "1 60429U 24144E   26139.99119948  .00000813  00000+0  39596-4 0  9994", "line2": "2 60429  53.1611 246.0939 0001212  86.4200 273.6940 15.30192906100265"}, {"name": "STARLINK-32196", "line1": "1 60430U 24144F   26139.65654728 -.00001025  00000+0 -19222-4 0  9991", "line2": "2 60430  53.1612 246.8501 0000593  54.6830 305.4228 15.34381604100181"}, {"name": "STARLINK-32232", "line1": "1 60431U 24144G   26140.25667603  .00000196  00000+0  18749-4 0  9995", "line2": "2 60431  53.1622 244.9061 0001174  90.4910 269.6225 15.30200081100268"}, {"name": "STARLINK-32246", "line1": "1 60432U 24144H   26139.59192529  .00000568  00000+0  31281-4 0  9990", "line2": "2 60432  53.1582 247.8660 0000583  71.8541 288.2523 15.30188166100163"}, {"name": "STARLINK-32183", "line1": "1 60433U 24144J   26139.58981671 -.00000638  00000+0 -94266-5 0  9997", "line2": "2 60433  53.1576 247.8489 0001072  70.9572 289.1545 15.30187300100167"}, {"name": "STARLINK-32233", "line1": "1 60434U 24144K   26140.31210092  .00015800  00000+0  47758-3 0  9990", "line2": "2 60434  53.1586 243.8333 0001122  82.9843 277.1288 15.34411608100282"}, {"name": "STARLINK-32222", "line1": "1 60435U 24144L   26139.58298945  .00001935  00000+0  68402-4 0  9995", "line2": "2 60435  53.1592 247.1027 0000808  90.2288 269.8807 15.34385101100173"}, {"name": "STARLINK-32229", "line1": "1 60436U 24144M   26139.70693881  .00002289  00000+0  78881-4 0  9993", "line2": "2 60436  53.1607 246.4541 0001095  76.9663 283.1462 15.34393471100198"}, {"name": "STARLINK-32241", "line1": "1 60437U 24144N   26140.31841379  .00000840  00000+0  35987-4 0  9991", "line2": "2 60437  53.1607 243.8702 0001167  77.1867 282.9266 15.34402984100287"}, {"name": "STARLINK-32240", "line1": "1 60438U 24144P   26139.70483876  .00002335  00000+0  80229-4 0  9997", "line2": "2 60438  53.1624 246.4471 0000967  89.6664 270.4449 15.34389023100237"}, {"name": "STARLINK-32231", "line1": "1 60439U 24144Q   26139.98432969  .00002865  00000+0  95955-4 0  9995", "line2": "2 60439  53.1644 245.3385 0001838  76.6378 283.4829 15.34379260 99334"}, {"name": "STARLINK-32195", "line1": "1 60440U 24144R   26140.02631138  .00000410  00000+0  23287-4 0  9996", "line2": "2 60440  53.1624 244.8938 0001173  74.5292 285.5840 15.34392370100242"}, {"name": "STARLINK-32177", "line1": "1 60441U 24144S   26139.62709297  .00000338  00000+0  21161-4 0  9991", "line2": "2 60441  53.1612 246.6656 0001380  93.1175 266.9986 15.34374325100181"}, {"name": "STARLINK-32252", "line1": "1 60442U 24144T   26140.02841166 -.00001172  00000+0 -23567-4 0  9991", "line2": "2 60442  53.1646 244.9050 0000964  77.4733 282.6378 15.34401849100283"}, {"name": "STARLINK-32237", "line1": "1 60443U 24144U   26139.99063804 -.00000484  00000+0 -31942-5 0  9993", "line2": "2 60443  53.1565 245.3807 0001252  87.5740 272.5406 15.34393272100235"}, {"name": "STARLINK-32249", "line1": "1 60444U 24144V   26139.71536474  .00000972  00000+0  39919-4 0  9993", "line2": "2 60444  53.1635 246.5043 0001557 103.1418 256.9758 15.34380294100230"}, {"name": "STARLINK-32228", "line1": "1 60445U 24144W   26139.61866305  .00001919  00000+0  67911-4 0  9997", "line2": "2 60445  53.1624 246.6124 0000209  96.5126 263.5901 15.34386500100223"}, {"name": "STARLINK-32247", "line1": "1 60446U 24144X   26139.68462444  .00000113  00000+0  15927-4 0  9996", "line2": "2 60446  53.1595 236.9390 0000922  79.9558 280.1547 15.30194022100362"}, {"name": "STARLINK-32101", "line1": "1 60447U 24144Y   26140.01368981  .00000201  00000+0  17084-4 0  9991", "line2": "2 60447  53.1608 244.8120 0001050 100.1826 259.9295 15.34390484100240"}, {"name": "STARLINK-31844", "line1": "1 60583U 24150A   26140.23655640  .00000265  00000+0  20305-4 0  9994", "line2": "2 60583  53.1613 334.1262 0001197  90.2204 269.8935 15.31706139 99005"}, {"name": "STARLINK-32204", "line1": "1 60584U 24150B   26140.24027331  .00000386  00000+0  22565-4 0  9990", "line2": "2 60584  53.1584 334.1450 0000991  76.5453 283.5660 15.34391515 99005"}, {"name": "STARLINK-32130", "line1": "1 60585U 24150C   26140.24587201 -.00000145  00000+0  72207-5 0  9991", "line2": "2 60585  53.1595 334.8892 0001479  86.3263 273.7907 15.30192012 98916"}, {"name": "STARLINK-32173", "line1": "1 60586U 24150D   26139.94606543  .00001495  00000+0  55397-4 0  9996", "line2": "2 60586  53.1616 335.1522 0001028  66.4116 293.6995 15.34386261 98969"}, {"name": "STARLINK-31911", "line1": "1 60587U 24150E   26139.97553083  .00001711  00000+0  61766-4 0  9998", "line2": "2 60587  53.1608 335.3396 0001106  79.0009 281.1118 15.34389827 98881"}, {"name": "STARLINK-31994", "line1": "1 60588U 24150F   26140.26543107  .00000342  00000+0  21265-4 0  9998", "line2": "2 60588  53.1634 333.5926 0001226  82.1786 277.9356 15.34394465 98937"}, {"name": "STARLINK-32169", "line1": "1 60589U 24150G   26140.25748399  .00004277  00000+0  15659-3 0  9998", "line2": "2 60589  53.1620 334.9626 0001236  89.3616 270.7526 15.30168381 98995"}, {"name": "STARLINK-32209", "line1": "1 60590U 24150H   26139.88723485  .00000150  00000+0  15574-4 0  9999", "line2": "2 60590  53.1630 335.4966 0001228  77.8292 282.2848 15.34397180 98950"}, {"name": "STARLINK-32170", "line1": "1 60591U 24150J   26139.99094331 -.00000061  00000+0  10066-4 0  9996", "line2": "2 60591  53.1614 336.1422 0001223  91.5717 268.5424 15.30192158 98870"}, {"name": "STARLINK-31497", "line1": "1 60592U 24150K   26139.90197012  .00000068  00000+0  13130-4 0  9999", "line2": "2 60592  53.1617 335.5892 0000943  66.3931 293.7170 15.34389289 98958"}, {"name": "STARLINK-32161", "line1": "1 60593U 24150L   26139.83473279 -.00000247  00000+0  38324-5 0  9997", "line2": "2 60593  53.1596 335.8812 0001200  88.5418 271.5722 15.34388056 98861"}, {"name": "STARLINK-32210", "line1": "1 60594U 24150M   26140.12045550  .00055579  00000+0  16608-2 0  9994", "line2": "2 60594  53.1610 334.8152 0001000  90.3212 269.7905 15.34077553 98988"}, {"name": "STARLINK-32202", "line1": "1 60595U 24150N   26140.24270274 -.00000046  00000+0  10582-4 0  9998", "line2": "2 60595  53.1614 334.8697 0001038  95.9538 264.1581 15.30195524 98995"}, {"name": "STARLINK-31930", "line1": "1 60596U 24150P   26140.24448063  .00000209  00000+0  17315-4 0  9993", "line2": "2 60596  53.1602 334.1677 0001311  75.2893 284.8255 15.34393317 98927"}, {"name": "STARLINK-32162", "line1": "1 60597U 24150Q   26139.92879496 -.00000294  00000+0  21879-5 0  9991", "line2": "2 60597  53.1613 336.4662 0001270  91.2897 268.8250 15.30189603 98941"}, {"name": "STARLINK-32208", "line1": "1 60598U 24150R   26139.86664565 -.00000310  00000+0  16506-5 0  9994", "line2": "2 60598  53.1628 336.7892 0001205  91.0648 269.0491 15.30191311 98934"}, {"name": "STARLINK-32165", "line1": "1 60599U 24150S   26140.24903423 -.00000247  00000+0  37727-5 0  9995", "line2": "2 60599  53.1599 334.9089 0000903  98.9788 261.1315 15.30191281 98995"}, {"name": "STARLINK-31923", "line1": "1 60600U 24150T   26140.23848225  .00000078  00000+0  14775-4 0  9993", "line2": "2 60600  53.1616 334.8421 0001238  96.3026 263.8116 15.30195327 98999"}, {"name": "STARLINK-31988", "line1": "1 60601U 24150U   26140.24237301 -.00002324  00000+0 -57669-4 0  9999", "line2": "2 60601  53.1617 334.1588 0000499  83.4649 276.6411 15.34403363 98923"}, {"name": "STARLINK-31983", "line1": "1 60602U 24150V   26139.89355459  .00000188  00000+0  16710-4 0  9990", "line2": "2 60602  53.1623 335.5357 0001574  79.4972 280.6207 15.34393605 98878"}, {"name": "STARLINK-31874", "line1": "1 60603U 24150W   26139.97342024  .00000487  00000+0  25545-4 0  9992", "line2": "2 60603  53.1633 335.3236 0001004  86.0624 274.0494 15.34391939 98963"}, {"name": "STARLINK-32039", "line1": "1 60604U 24150X   26140.28122045  .00000155  00000+0  17377-4 0  9994", "line2": "2 60604  53.1633 337.2412 0001353  80.3796 279.7358 15.30196968 98967"}, {"name": "STARLINK-11247 [DTC]", "line1": "1 60720U 24152A   26140.20870163  .00001212  00000+0  14860-4 0  9997", "line2": "2 60720  53.1595 124.0145 0001199  75.5351 284.5800 15.69715223100063"}, {"name": "STARLINK-11259 [DTC]", "line1": "1 60721U 24152B   26140.20379298  .00000395  00000+0  81200-5 0  9995", "line2": "2 60721  53.1594 123.9775 0001256 105.1942 254.9215 15.69717944100063"}, {"name": "STARLINK-11188 [DTC]", "line1": "1 60722U 24152C   26140.19889383  .00001116  00000+0  14069-4 0  9995", "line2": "2 60722  53.1577 123.9483 0000745  72.5984 287.5115 15.69705878100183"}, {"name": "STARLINK-11272 [DTC]", "line1": "1 60723U 24152D   26140.25274427 -.00000818  00000+0 -18938-5 0  9990", "line2": "2 60723  53.1593 123.5683 0001242  94.4054 265.7106 15.69724512100076"}, {"name": "STARLINK-11261 [DTC]", "line1": "1 60724U 24152E   26140.19398227  .00000761  00000+0  11140-4 0  9991", "line2": "2 60724  53.1586 123.9155 0001358  68.3857 291.7305 15.69722151100062"}]